$$SOE
2461295.500000000, A.D. 2026-Sep-12 00:00:00.0000, 1.278131448136355E+08, 4.456844909941144E+08, -8.438094844832936E+07,
2461302.500000000, A.D. 2026-Sep-19 00:00:00.0000, 1.185296021602562E+08, 4.490564760497863E+08, -8.474638878522974E+07,
2461309.500000000, A.D. 2026-Sep-26 00:00:00.0000, 1.091913060598380E+08, 4.522212727300391E+08, -8.507271769609159E+07,
2461316.500000000, A.D. 2026-Oct-03 00:00:00.0000, 9.980282565899980E+07, 4.551785102913104E+08, -8.535998954370072E+07,
2461323.500000000, A.D. 2026-Oct-10 00:00:00.0000, 9.036870286668862E+07, 4.579279029217587E+08, -8.560827345147952E+07,
2461330.500000000, A.D. 2026-Oct-17 00:00:00.0000, 8.089345142615195E+07, 4.604692480080677E+08, -8.581765294683021E+07,
2461337.500000000, A.D. 2026-Oct-24 00:00:00.0000, 7.138155604548571E+07, 4.628024243442487E+08, -8.598822562093283E+07,
2461344.500000000, A.D. 2026-Oct-31 00:00:00.0000, 6.183747168197100E+07, 4.649273902173976E+08, -8.612010281967770E+07,
2461351.500000000, A.D. 2026-Nov-07 00:00:00.0000, 5.226562331584807E+07, 4.668441814461747E+08, -8.621340939097311E+07,
2461358.500000000, A.D. 2026-Nov-14 00:00:00.0000, 4.267040641157784E+07, 4.685529102613493E+08, -8.626828343468739E+07,
2461365.500000000, A.D. 2026-Nov-21 00:00:00.0000, 3.305618625333818E+07, 4.700537657111069E+08, -8.628487583345485E+07,
2461372.500000000, A.D. 2026-Nov-28 00:00:00.0000, 2.342729515454957E+07, 4.713470125807127E+08, -8.626334971738520E+07,
2461379.500000000, A.D. 2026-Dec-05 00:00:00.0000, 1.378803115640406E+07, 4.724329881690469E+08, -8.620388024705410E+07,
2461386.500000000, A.D. 2026-Dec-12 00:00:00.0000, 4.142658376981627E+06, 4.733121000340858E+08, -8.610665447549938E+07,
2461393.500000000, A.D. 2026-Dec-19 00:00:00.0000, -5.504592879197212E+06, 4.739848247132264E+08, -8.597187111498004E+07,
2461400.500000000, A.D. 2026-Dec-26 00:00:00.0000, -1.514952639750404E+07, 4.744517065500077E+08, -8.579974026577950E+07,
2461407.500000000, A.D. 2027-Jan-02 00:00:00.0000, -2.478798044345958E+07, 4.747133564369814E+08, -8.559048314793043E+07,
2461414.500000000, A.D. 2027-Jan-09 00:00:00.0000, -3.441582815344428E+07, 4.747704504957311E+08, -8.534433184517218E+07,
2461421.500000000, A.D. 2027-Jan-16 00:00:00.0000, -4.402897789398640E+07, 4.746237287032925E+08, -8.506152906386198E+07,
2461428.500000000, A.D. 2027-Jan-23 00:00:00.0000, -5.362337354733440E+07, 4.742739934253604E+08, -8.474232791440479E+07,
2461435.500000000, A.D. 2027-Jan-30 00:00:00.0000, -6.319499453951510E+07, 4.737221078082771E+08, -8.438699173637301E+07,
2461442.500000000, A.D. 2027-Feb-06 00:00:00.0000, -7.273985519023448E+07, 4.729689943697011E+08, -8.399579397859366E+07,
2461449.500000000, A.D. 2027-Feb-13 00:00:00.0000, -8.225400384875081E+07, 4.720156350080981E+08, -8.356901799268851E+07,
2461456.500000000, A.D. 2027-Feb-20 00:00:00.0000, -9.173352418191729E+07, 4.708630716400230E+08, -8.310695658816248E+07,
2461463.500000000, A.D. 2027-Feb-27 00:00:00.0000, -1.011745372207142E+08, 4.695124042489750E+08, -8.260991173892218E+07,
2461470.500000000, A.D. 2027-Mar-06 00:00:00.0000, -1.105732011513231E+08, 4.679647882673885E+08, -8.207819456069066E+07,
2461477.500000000, A.D. 2027-Mar-13 00:00:00.0000, -1.199257104535306E+08, 4.662214333424045E+08, -8.151212524576825E+07,
2461484.500000000, A.D. 2027-Mar-20 00:00:00.0000, -1.292282955170729E+08, 4.642836026503346E+08, -8.091203291982016E+07,
2461491.500000000, A.D. 2027-Mar-27 00:00:00.0000, -1.384772225355769E+08, 4.621526122096761E+08, -8.027825548380049E+07,
2461498.500000000, A.D. 2027-Apr-03 00:00:00.0000, -1.476687934771005E+08, 4.598298301440443E+08, -7.961113946334408E+07,
2461505.500000000, A.D. 2027-Apr-10 00:00:00.0000, -1.567993460718542E+08, 4.573166759173834E+08, -7.891103986923595E+07,
2461512.500000000, A.D. 2027-Apr-17 00:00:00.0000, -1.658652537967451E+08, 4.546146195264745E+08, -7.817832007202095E+07,
2461519.500000000, A.D. 2027-Apr-24 00:00:00.0000, -1.748629257791626E+08, 4.517251805878638E+08, -7.741335170293744E+07,
2461526.500000000, A.D. 2027-May-01 00:00:00.0000, -1.837888063220244E+08, 4.486499273462253E+08, -7.661651460618110E+07,
2461533.500000000, A.D. 2027-May-08 00:00:00.0000, -1.926393737445664E+08, 4.453904763519353E+08, -7.578819680941084E+07,
2461540.500000000, A.D. 2027-May-15 00:00:00.0000, -2.014111400376522E+08, 4.419484937614763E+08, -7.492879429746215E+07,
2461547.500000000, A.D. 2027-May-22 00:00:00.0000, -2.101006528979197E+08, 4.383256956689483E+08, -7.403871065757476E+07,
2461554.500000000, A.D. 2027-May-29 00:00:00.0000, -2.187044967853211E+08, 4.345238459978667E+08, -7.311835702292788E+07,
2461561.500000000, A.D. 2027-Jun-05 00:00:00.0000, -2.272192921220592E+08, 4.305447550837436E+08, -7.216815213939117E+07,
2461568.500000000, A.D. 2027-Jun-12 00:00:00.0000, -2.356416946424343E+08, 4.263902793800212E+08, -7.118852233642562E+07,
2461575.500000000, A.D. 2027-Jun-19 00:00:00.0000, -2.439683952254246E+08, 4.220623213520461E+08, -7.017990144797646E+07,
2461582.500000000, A.D. 2027-Jun-26 00:00:00.0000, -2.521961199316832E+08, 4.175628292967981E+08, -6.914273072989687E+07,
2461589.500000000, A.D. 2027-Jul-03 00:00:00.0000, -2.603216301142107E+08, 4.128937970959024E+08, -6.807745878497066E+07,
2461596.500000000, A.D. 2027-Jul-10 00:00:00.0000, -2.683417225672298E+08, 4.080572639101254E+08, -6.698454149789248E+07,
2461603.500000000, A.D. 2027-Jul-17 00:00:00.0000, -2.762532296780632E+08, 4.030553137760803E+08, -6.586444198639567E+07,
2461610.500000000, A.D. 2027-Jul-24 00:00:00.0000, -2.840530194263718E+08, 3.978900750418541E+08, -6.471763058761777E+07,
2461617.500000000, A.D. 2027-Jul-31 00:00:00.0000, -2.917379948197421E+08, 3.925637198762051E+08, -6.354458489765085E+07,
2461624.500000000, A.D. 2027-Aug-07 00:00:00.0000, -2.993050929668804E+08, 3.870784650017993E+08, -6.234578975115865E+07,
2461631.500000000, A.D. 2027-Aug-14 00:00:00.0000, -3.067512860904174E+08, 3.814365733982221E+08, -6.112173695034981E+07,
2461638.500000000, A.D. 2027-Aug-21 00:00:00.0000, -3.140735838610430E+08, 3.756403536091141E+08, -5.987292507437211E+07,
2461645.500000000, A.D. 2027-Aug-28 00:00:00.0000, -3.212690336225254E+08, 3.696921578532442E+08, -5.859985958458154E+07,
2461652.500000000, A.D. 2027-Sep-04 00:00:00.0000, -3.283347196922598E+08, 3.635943814403598E+08, -5.730305291311845E+07,
2461659.500000000, A.D. 2027-Sep-11 00:00:00.0000, -3.352677631354706E+08, 3.573494628316637E+08, -5.598302446177779E+07,
2461666.500000000, A.D. 2027-Sep-18 00:00:00.0000, -3.420653218808848E+08, 3.509598836955407E+08, -5.464030057698633E+07,
2461673.500000000, A.D. 2027-Sep-25 00:00:00.0000, -3.487245909494885E+08, 3.444281688808910E+08, -5.327541452834590E+07,
2461680.500000000, A.D. 2027-Oct-02 00:00:00.0000, -3.552428027217487E+08, 3.377568863352313E+08, -5.188890649537110E+07,
2461687.500000000, A.D. 2027-Oct-09 00:00:00.0000, -3.616172272212919E+08, 3.309486469624267E+08, -5.048132356477667E+07,
2461694.500000000, A.D. 2027-Oct-16 00:00:00.0000, -3.678451723523520E+08, 3.240061043643942E+08, -4.905321974848063E+07,
2461701.500000000, A.D. 2027-Oct-23 00:00:00.0000, -3.739239838316110E+08, 3.169319544601533E+08, -4.760515604646805E+07,
2461708.500000000, A.D. 2027-Oct-30 00:00:00.0000, -3.798510444403402E+08, 3.097289355914128E+08, -4.613770053881496E+07,
2461715.500000000, A.D. 2027-Nov-06 00:00:00.0000, -3.856237737615488E+08, 3.023998302417871E+08, -4.465142830789998E+07,
2461722.500000000, A.D. 2027-Nov-13 00:00:00.0000, -3.912396303892570E+08, 2.949474662933977E+08, -4.314692117852826E+07,
2461729.500000000, A.D. 2027-Nov-20 00:00:00.0000, -3.966961137078074E+08, 2.873747156347353E+08, -4.162476772042035E+07,
2461736.500000000, A.D. 2027-Nov-27 00:00:00.0000, -4.019907636230764E+08, 2.796844930817241E+08, -4.008556341835506E+07,
2461743.500000000, A.D. 2027-Dec-04 00:00:00.0000, -4.071211602710082E+08, 2.718797565239942E+08, -3.852991074950036E+07,
2461750.500000000, A.D. 2027-Dec-11 00:00:00.0000, -4.120849242558465E+08, 2.639635073320369E+08, -3.695841919622764E+07,
2461757.500000000, A.D. 2027-Dec-18 00:00:00.0000, -4.168797171438039E+08, 2.559387906854540E+08, -3.537170524702613E+07,
2461764.500000000, A.D. 2027-Dec-25 00:00:00.0000, -4.215032420607685E+08, 2.478086958188970E+08, -3.377039239919328E+07,
2461771.500000000, A.D. 2028-Jan-01 00:00:00.0000, -4.259532443534124E+08, 2.395763561989060E+08, -3.215511116547143E+07,
$$EOE